[{"OBJECT_NAME":"STARLINK-11418 [DTC]","OBJECT_ID":"2025-035G","EPOCH":"2026-03-09T16:00:03.000096","MEAN_MOTION":15.70879639,"ECCENTRICITY":0.00014092,"INCLINATION":43.0005,"RA_OF_ASC_NODE":15.8636,"ARG_OF_PERICENTER":267.9312,"MEAN_ANOMALY":67.5521,"EPHEMERIS_TYPE":0,"CLASSIFICATION_TYPE":"U","NORAD_CAT_ID":63058,"ELEMENT_SET_NO":999,"REV_AT_EPOCH":599,"BSTAR":-0.00079966082,"MEAN_MOTION_DOT":-0.00101977,"MEAN_MOTION_DDOT":0},{"OBJECT_NAME":"COSMOS 921 DEB","OBJECT_ID":"1977-055C","EPOCH":"2026-03-09T22:42:10.805760","MEAN_MOTION":15.70063735,"ECCENTRICITY":0.00183564,"INCLINATION":75.8082,"RA_OF_ASC_NODE":161.9867,"ARG_OF_PERICENTER":333.9317,"MEAN_ANOMALY":26.0991,"EPHEMERIS_TYPE":0,"CLASSIFICATION_TYPE":"U","NORAD_CAT_ID":39690,"ELEMENT_SET_NO":999,"REV_AT_EPOCH":65481,"BSTAR":0.0010474937,"MEAN_MOTION_DOT":0.0012919,"MEAN_MOTION_DDOT":0}]
